{
    "links": {
        "self": "http://www.neowsapp.com/rest/v1/neo/3728907?api_key=iIulBulltgU6a56xZRHN4H3l9WmuAYTsLGpBGhQ2"
    },
    "id": "3728907",
    "neo_reference_id": "3728907",
    "name": "(2015 TL)",
    "designation": "2015 TL",
    "nasa_jpl_url": "http://ssd.jpl.nasa.gov/sbdb.cgi?sstr=3728907",
    "absolute_magnitude_h": 25.4,
    "estimated_diameter": {
        "kilometers": {
            "estimated_diameter_min": 0.022108281,
            "estimated_diameter_max": 0.0494356193
        },
        "meters": {
            "estimated_diameter_min": 22.1082810359,
            "estimated_diameter_max": 49.435619262
        },
        "miles": {
            "estimated_diameter_min": 0.0137374447,
            "estimated_diameter_max": 0.0307178602
        },
        "feet": {
            "estimated_diameter_min": 72.5337327539,
            "estimated_diameter_max": 162.1903570994
        }
    },
    "is_potentially_hazardous_asteroid": false,
    "close_approach_data": [
        {
            "close_approach_date": "2015-10-17",
            "close_approach_date_full": "2015-Oct-17 19:00",
            "epoch_date_close_approach": 1445108400000,
            "relative_velocity": {
                "kilometers_per_second": "5.9053548748",
                "kilometers_per_hour": "21259.2775494181",
                "miles_per_hour": "13209.6883195259"
            },
            "miss_distance": {
                "astronomical": "0.0812926086",
                "lunar": "31.6228247454",
                "kilometers": "12161201.093303682",
                "miles": "7556619.9542555316"
            },
            "orbiting_body": "Earth"
        }
    ],
    "orbital_data": {
        "orbit_id": "13",
        "orbit_determination_date": "2017-04-06 08:31:38",
        "first_observation_date": "2015-10-03",
        "last_observation_date": "2015-11-05",
        "data_arc_in_days": 33,
        "observations_used": 39,
        "orbit_uncertainty": "7",
        "minimum_orbit_intersection": ".0804981",
        "jupiter_tisserand_invariant": "4.109",
        "epoch_osculation": "2459000.5",
        "eccentricity": ".3728694245664276",
        "semi_major_axis": "1.701803069458253",
        "inclination": "7.671996654819706",
        "ascending_node_longitude": "196.3087495520457",
        "orbital_period": "810.8908143540452",
        "perihelion_distance": "1.067252738223974",
        "perihelion_argument": "200.5403634773291",
        "aphelion_distance": "2.336353400692532",
        "perihelion_time": "2458946.724060602013",
        "mean_anomaly": "23.874161404451",
        "mean_motion": ".4439561943820705",
        "equinox": "J2000",
        "orbit_class": {
            "orbit_class_type": "AMO",
            "orbit_class_description": "Near-Earth asteroid orbits similar to that of 1221 Amor",
            "orbit_class_range": "1.017 AU < q (perihelion) < 1.3 AU"
        }
    },
    "is_sentry_object": false
}